start=new Date('2022-01-11T00:00:00.000Z').valueOf();
sats=[{"SITE":"AFETR","GP_ID":"193623608","PERIOD":"95.592","TLE_LINE2":"2 45090  53.0537 224.8595 0002631  66.1008 294.0256 15.06402607108100","MEAN_ANOMALY":"294.0256","INCLINATION":"53.0537","MEAN_MOTION_DOT":"0.00000867","PERIAPSIS":"545.384","OBJECT_ID":"2020-006AY","OBJECT_TYPE":"PAYLOAD","REF_FRAME":"TEME","FILE":"3269118","MEAN_MOTION_DDOT":"0.0000000000000","RCS_SIZE":"LARGE","OBJECT_NAME":"STARLINK-1176","TLE_LINE1":"1 45090U 20006AY  22010.87127253  .00000867  00000-0  77135-4 0  9994","BSTAR":"0.00007713500000","CLASSIFICATION_TYPE":"U","ARG_OF_PERICENTER":"66.1008","MEAN_MOTION":"15.06402607","CENTER_NAME":"EARTH","RA_OF_ASC_NODE":"224.8595","TIME_SYSTEM":"UTC","DECAY_DATE":null,"SEMIMAJOR_AXIS":"6925.341","REV_AT_EPOCH":"10810","ECCENTRICITY":"0.00026310","EPHEMERIS_TYPE":"0","MEAN_ELEMENT_THEORY":"SGP4","NORAD_CAT_ID":"45090","COUNTRY_CODE":"US","APOAPSIS":"549.028","ELEMENT_SET_NO":"999","LAUNCH_DATE":"2020-01-29","EPOCH":"2022-01-10T20:54:37.946592"},{"OBJECT_ID":"2020-006BA","PERIAPSIS":"545.691","MEAN_MOTION_DOT":"0.00001187","INCLINATION":"53.0540","PERIOD":"95.592","TLE_LINE2":"2 45092  53.0540 224.9824 0002180  72.3555 287.7672 15.06404326108096","MEAN_ANOMALY":"287.7672","GP_ID":"193622857","SITE":"AFETR","TLE_LINE1":"1 45092U 20006BA  22010.84546338  .00001187  00000-0  98566-4 0  9999","BSTAR":"0.00009856600000","OBJECT_NAME":"STARLINK-1137","RCS_SIZE":"LARGE","MEAN_MOTION_DDOT":"0.0000000000000","FILE":"3269118","REF_FRAME":"TEME","OBJECT_TYPE":"PAYLOAD","RA_OF_ASC_NODE":"224.9824","MEAN_MOTION":"15.06404326","CENTER_NAME":"EARTH","ARG_OF_PERICENTER":"72.3555","CLASSIFICATION_TYPE":"U","EPOCH":"2022-01-10T20:17:28.036032","LAUNCH_DATE":"2020-01-29","APOAPSIS":"548.710","COUNTRY_CODE":"US","ELEMENT_SET_NO":"999","NORAD_CAT_ID":"45092","MEAN_ELEMENT_THEORY":"SGP4","DECAY_DATE":null,"ECCENTRICITY":"0.00021800","SEMIMAJOR_AXIS":"6925.335","REV_AT_EPOCH":"10809","EPHEMERIS_TYPE":"0","TIME_SYSTEM":"UTC"},{"EPOCH":"2022-01-10T20:12:11.845728","COUNTRY_CODE":"US","APOAPSIS":"548.778","ELEMENT_SET_NO":"999","LAUNCH_DATE":"2020-01-29","MEAN_ELEMENT_THEORY":"SGP4","NORAD_CAT_ID":"45093","TIME_SYSTEM":"UTC","ECCENTRICITY":"0.00022400","DECAY_DATE":null,"SEMIMAJOR_AXIS":"6925.362","REV_AT_EPOCH":"10809","EPHEMERIS_TYPE":"0","MEAN_MOTION":"15.06395568","CENTER_NAME":"EARTH","RA_OF_ASC_NODE":"224.9942","ARG_OF_PERICENTER":"72.3886","CLASSIFICATION_TYPE":"U","OBJECT_NAME":"STARLINK-1142","TLE_LINE1":"1 45093U 20006BB  22010.84180377  .00001104  00000-0  93052-4 0  9991","BSTAR":"0.00009305200000","RCS_SIZE":"LARGE","FILE":"3269118","MEAN_MOTION_DDOT":"0.0000000000000","OBJECT_TYPE":"PAYLOAD","REF_FRAME":"TEME","OBJECT_ID":"2020-006BB","INCLINATION":"53.0540","MEAN_MOTION_DOT":"0.00001104","PERIAPSIS":"545.676","TLE_LINE2":"2 45093  53.0540 224.9942 0002240  72.3886 287.7347 15.06395568108098","PERIOD":"95.592","MEAN_ANOMALY":"287.7347","GP_ID":"193622607","SITE":"AFETR"},{"OBJECT_ID":"2020-006BC","PERIAPSIS":"545.839","MEAN_MOTION_DOT":"0.00000771","INCLINATION":"53.0552","MEAN_ANOMALY":"291.1845","TLE_LINE2":"2 45094  53.0552 224.9221 0002056  68.9364 291.1845 15.06383846108109","PERIOD":"95.593","SITE":"AFETR","GP_ID":"193623858","TLE_LINE1":"1 45094U 20006BC  22010.85654932  .00000771  00000-0  70686-4 0  9993","BSTAR":"0.00007068600000","OBJECT_NAME":"STARLINK-1146","RCS_SIZE":"LARGE","MEAN_MOTION_DDOT":"0.0000000000000","FILE":"3269118","REF_FRAME":"TEME","OBJECT_TYPE":"PAYLOAD","RA_OF_ASC_NODE":"224.9221","CENTER_NAME":"EARTH","MEAN_MOTION":"15.06383846","ARG_OF_PERICENTER":"68.9364","CLASSIFICATION_TYPE":"U","EPOCH":"2022-01-10T20:33:25.861248","LAUNCH_DATE":"2020-01-29","ELEMENT_SET_NO":"999","COUNTRY_CODE":"US","APOAPSIS":"548.687","MEAN_ELEMENT_THEORY":"SGP4","NORAD_CAT_ID":"45094","EPHEMERIS_TYPE":"0","DECAY_DATE":null,"REV_AT_EPOCH":"10810","SEMIMAJOR_AXIS":"6925.398","ECCENTRICITY":"0.00020560","TIME_SYSTEM":"UTC"},{"EPOCH":"2022-01-10T20:38:44.845728","COUNTRY_CODE":"US","APOAPSIS":"548.853","ELEMENT_SET_NO":"999","LAUNCH_DATE":"2020-01-29","NORAD_CAT_ID":"45095","MEAN_ELEMENT_THEORY":"SGP4","TIME_SYSTEM":"UTC","DECAY_DATE":null,"SEMIMAJOR_AXIS":"6925.406","ECCENTRICITY":"0.00022840","REV_AT_EPOCH":"10810","EPHEMERIS_TYPE":"0","MEAN_MOTION":"15.06381286","CENTER_NAME":"EARTH","RA_OF_ASC_NODE":"224.9193","ARG_OF_PERICENTER":"67.3853","CLASSIFICATION_TYPE":"U","OBJECT_NAME":"STARLINK-1147","BSTAR":"0.00002796100000","TLE_LINE1":"1 45095U 20006BD  22010.86024127  .00000135  00000-0  27961-4 0  9994","RCS_SIZE":"LARGE","FILE":"3269118","MEAN_MOTION_DDOT":"0.0000000000000","OBJECT_TYPE":"PAYLOAD","REF_FRAME":"TEME","OBJECT_ID":"2020-006BD","INCLINATION":"53.0547","MEAN_MOTION_DOT":"0.00000135","PERIAPSIS":"545.689","TLE_LINE2":"2 45095  53.0547 224.9193 0002284  67.3853 292.7378 15.06381286108105","PERIOD":"95.593","MEAN_ANOMALY":"292.7378","GP_ID":"193624108","SITE":"AFETR"},{"PERIAPSIS":"545.714","INCLINATION":"53.0541","MEAN_MOTION_DOT":"0.00000682","OBJECT_ID":"2020-006BE","SITE":"AFETR","GP_ID":"193622358","PERIOD":"95.593","TLE_LINE2":"2 45096  53.0541 224.9567 0002217  70.7711 289.3518 15.06388394108095","MEAN_ANOMALY":"289.3518","RCS_SIZE":"LARGE","TLE_LINE1":"1 45096U 20006BE  22010.85285892  .00000682  00000-0  64741-4 0  9996","BSTAR":"0.00006474100000","OBJECT_NAME":"STARLINK-1152","REF_FRAME":"TEME","OBJECT_TYPE":"PAYLOAD","MEAN_MOTION_DDOT":"0.0000000000000","FILE":"3269118","ARG_OF_PERICENTER":"70.7711","RA_OF_ASC_NODE":"224.9567","MEAN_MOTION":"15.06388394","CENTER_NAME":"EARTH","CLASSIFICATION_TYPE":"U","LAUNCH_DATE":"2020-01-29","APOAPSIS":"548.784","COUNTRY_CODE":"US","ELEMENT_SET_NO":"999","EPOCH":"2022-01-10T20:28:07.010688","DECAY_DATE":null,"ECCENTRICITY":"0.00022170","SEMIMAJOR_AXIS":"6925.384","REV_AT_EPOCH":"10809","EPHEMERIS_TYPE":"0","TIME_SYSTEM":"UTC","NORAD_CAT_ID":"45096","MEAN_ELEMENT_THEORY":"SGP4"},{"MEAN_MOTION_DDOT":"0.0000000000000","FILE":"3269118","REF_FRAME":"TEME","OBJECT_TYPE":"PAYLOAD","BSTAR":"0.00013075000000","TLE_LINE1":"1 45098U 20006BG  22010.83441628  .00001666  00000-0  13075-3 0  9993","OBJECT_NAME":"STARLINK-1184","RCS_SIZE":"LARGE","MEAN_ANOMALY":"288.0962","TLE_LINE2":"2 45098  53.0544 225.0360 0002154  72.0262 288.0962 15.06401746108095","PERIOD":"95.592","GP_ID":"193623107","SITE":"AFETR","OBJECT_ID":"2020-006BG","PERIAPSIS":"545.716","MEAN_MOTION_DOT":"0.00001666","INCLINATION":"53.0544","MEAN_ELEMENT_THEORY":"SGP4","NORAD_CAT_ID":"45098","EPHEMERIS_TYPE":"0","DECAY_DATE":null,"REV_AT_EPOCH":"10809","SEMIMAJOR_AXIS":"6925.343","ECCENTRICITY":"0.00021540","TIME_SYSTEM":"UTC","EPOCH":"2022-01-10T20:01:33.566592","LAUNCH_DATE":"2020-01-29","ELEMENT_SET_NO":"999","COUNTRY_CODE":"US","APOAPSIS":"548.700","CLASSIFICATION_TYPE":"U","RA_OF_ASC_NODE":"225.0360","CENTER_NAME":"EARTH","MEAN_MOTION":"15.06401746","ARG_OF_PERICENTER":"72.0262"},{"REF_FRAME":"TEME","OBJECT_TYPE":"PAYLOAD","MEAN_MOTION_DDOT":"0.0000000000000","FILE":"3269118","RCS_SIZE":"LARGE","BSTAR":"0.00006408500000","TLE_LINE1":"1 45099U 20006BH  22010.86759244  .00000673  00000-0  64085-4 0  9998","OBJECT_NAME":"STARLINK-1186","SITE":"AFETR","GP_ID":"193623359","TLE_LINE2":"2 45099  53.0550 224.8730 0002406  63.2431 296.8804 15.06403038108101","PERIOD":"95.592","MEAN_ANOMALY":"296.8804","PERIAPSIS":"545.538","MEAN_MOTION_DOT":"0.00000673","INCLINATION":"53.0550","OBJECT_ID":"2020-006BH","DECAY_DATE":null,"SEMIMAJOR_AXIS":"6925.339","REV_AT_EPOCH":"10810","ECCENTRICITY":"0.00024060","EPHEMERIS_TYPE":"0","TIME_SYSTEM":"UTC","MEAN_ELEMENT_THEORY":"SGP4","NORAD_CAT_ID":"45099","LAUNCH_DATE":"2020-01-29","APOAPSIS":"548.870","COUNTRY_CODE":"US","ELEMENT_SET_NO":"999","EPOCH":"2022-01-10T20:49:19.986816","CLASSIFICATION_TYPE":"U","ARG_OF_PERICENTER":"63.2431","RA_OF_ASC_NODE":"224.8730","MEAN_MOTION":"15.06403038","CENTER_NAME":"EARTH"},{"OBJECT_TYPE":"PAYLOAD","REF_FRAME":"TEME","FILE":"3269118","MEAN_MOTION_DDOT":"0.0000000000000","RCS_SIZE":"LARGE","OBJECT_NAME":"STARLINK-1193","TLE_LINE1":"1 45100U 20006BJ  22010.83073410 -.00001232  00000-0 -63822-4 0  9994","BSTAR":"-0.00006382200000","GP_ID":"193623609","SITE":"AFETR","MEAN_ANOMALY":"290.9368","PERIOD":"95.593","TLE_LINE2":"2 45100  53.0545 225.0280 0002310  69.1868 290.9368 15.06388322108090","MEAN_MOTION_DOT":"-0.00001232","INCLINATION":"53.0545","PERIAPSIS":"545.650","OBJECT_ID":"2020-006BJ","TIME_SYSTEM":"UTC","EPHEMERIS_TYPE":"0","DECAY_DATE":null,"SEMIMAJOR_AXIS":"6925.384","ECCENTRICITY":"0.00023100","REV_AT_EPOCH":"10809","NORAD_CAT_ID":"45100","MEAN_ELEMENT_THEORY":"SGP4","ELEMENT_SET_NO":"999","COUNTRY_CODE":"US","APOAPSIS":"548.849","LAUNCH_DATE":"2020-01-29","EPOCH":"2022-01-10T19:56:15.426240","CLASSIFICATION_TYPE":"U","ARG_OF_PERICENTER":"69.1868","CENTER_NAME":"EARTH","MEAN_MOTION":"15.06388322","RA_OF_ASC_NODE":"225.0280"},{"REV_AT_EPOCH":"10809","DECAY_DATE":null,"SEMIMAJOR_AXIS":"6925.364","ECCENTRICITY":"0.00021900","EPHEMERIS_TYPE":"0","TIME_SYSTEM":"UTC","MEAN_ELEMENT_THEORY":"SGP4","NORAD_CAT_ID":"45101","LAUNCH_DATE":"2020-01-29","COUNTRY_CODE":"US","APOAPSIS":"548.746","ELEMENT_SET_NO":"999","EPOCH":"2022-01-10T19:50:57.094080","CLASSIFICATION_TYPE":"U","ARG_OF_PERICENTER":"74.9427","RA_OF_ASC_NODE":"225.0486","MEAN_MOTION":"15.06394984","CENTER_NAME":"EARTH","REF_FRAME":"TEME","OBJECT_TYPE":"PAYLOAD","MEAN_MOTION_DDOT":"0.0000000000000","FILE":"3269118","RCS_SIZE":"LARGE","TLE_LINE1":"1 45101U 20006BK  22010.82704970 -.00000540  00000-0 -17323-4 0  9992","BSTAR":"-0.00001732300000","OBJECT_NAME":"STARLINK-1194","SITE":"AFETR","GP_ID":"193622858","TLE_LINE2":"2 45101  53.0537 225.0486 0002190  74.9427 285.1804 15.06394984108093","PERIOD":"95.592","MEAN_ANOMALY":"285.1804","PERIAPSIS":"545.712","INCLINATION":"53.0537","MEAN_MOTION_DOT":"-0.00000540","OBJECT_ID":"2020-006BK"}];
